TEVEL2-9                
1 63237U 25052AD  26068.70229538  .00018694  00000+0  67240-3 0  9992
2 63237  97.4057 324.3929 0007990 124.2475 235.9522 15.28633834 54816
STARLINK-33984          
1 63830U 25092AC  26068.28421678  .00025027  00000+0  91558-3 0  9994
2 63830  43.0041 174.7438 0001904 287.0830  72.9813 15.27590653 48555
